CAS-2T & KS-1Q          
1 41847U 16066G   23086.78097088  .00002470  00000+0  37309-3 0  9996
2 41847  98.5109 155.7078 0361821  81.6823 282.5213 14.39439504335095
NAYIF-1 (EO-88)         
1 42017U 17008BX  23086.73123291  .00095721  00000+0  13488-2 0  9996
2 42017  97.2231 155.8889 0002529 275.8786  84.2181 15.56295850340710
ZHUHAI-1 02 (CAS-4B)    
1 42759U 17034B   23086.81506764  .00016046  00000+0  83407-3 0  9999
2 42759  43.0170 207.5253 0011947 296.0819 199.3390 15.15791885319282
ZHUHAI-1 01 (CAS-4A)    
1 42761U 17034D   23086.83446471  .00015389  00000+0  79855-3 0  9993
2 42761  43.0164 205.9760 0012529 298.4786 203.7714 15.15871935319295
MAX VALIER SAT          
1 42778U 17036P   23086.84973402  .00024482  00000+0  72241-3 0  9999
2 42778  97.1688 123.7802 0009610  48.4045 311.8021 15.34932868320238
RADFXSAT (FOX-1B)       
1 43017U 17073E   23086.68330161  .00011475  00000+0  81692-3 0  9996
2 43017  97.6414 334.2548 0236884 338.5676  20.5745 14.84852715289081
FOX-1D (AO-92)          
1 43137U 18004AC  23086.75901039  .00036774  00000+0  91502-3 0  9990
2 43137  97.3338 165.3972 0006633  82.4555 277.7444 15.40162916289754
DIWATA-2B               
1 43678U 18084H   23086.90817259  .00003623  00000+0  35308-3 0  9994
2 43678  98.0071 229.3199 0010802  72.3096 287.9285 14.93090937240134
ES'HAIL 2               
1 43700U 18090A   23086.85792712  .00000136  00000+0  00000+0 0  9990
2 43700   0.0177 177.0716 0001111 179.7040 162.8728  1.00271176 15872
FOX-1CLIFF (AO-95)      
1 43770U 18099N   23086.74234630  .00006079  00000+0  50676-3 0  9994
2 43770  97.5827 150.4911 0014712  48.5510 311.6974 14.98880751235406
ITASAT 1                
1 43786U 18099AE  23086.73023218  .00006499  00000+0  54399-3 0  9990
2 43786  97.5850 151.5100 0015368  44.5453 315.7002 14.98689386235443
JY1SAT (JO-97)          
1 43803U 18099AX  23086.68294995  .00006390  00000+0  52041-3 0  9998
2 43803  97.5813 151.3859 0014696  35.1603 325.0587 14.99765872235478
UWE-4                   
1 43880U 18111E   23086.73116713  .00008432  00000+0  66183-3 0  9996
2 43880  97.6450 353.2051 0018183  88.5661 271.7645 15.01043190232148
NEXUS (FO-99)           
1 43937U 19003F   23086.81484137  .00047087  00000+0  10187-2 0  9998
2 43937  97.0992 115.4766 0014915 204.2296 155.8254 15.44215094233451
JAISAT-1                
1 44419U 19038F   23086.90853050  .00028715  00000+0  11116-2 0  9996
2 44419  97.6705  66.1966 0013805 218.5829 141.4423 15.26058267206126
DUCHIFAT-3              
1 44854U 19089C   23086.78933333  .00014382  00000+0  10034-2 0  9997
2 44854  36.9642 217.2447 0008780  12.6211 111.9003 15.04751886180560
CAS-6 (TIANQIN 1)       
1 44881U 19093C   23086.82692143  .00002059  00000+0  26379-3 0  9996
2 44881  97.8647 166.6624 0014620 348.9344  11.1538 14.82313031176747
RS-44 & BREEZE-KM R/B   
1 44909U 19096E   23086.91376242  .00000047  00000+0  14300-3 0  9995
2 44909  82.5234  41.9403 0217946  17.2936 343.5439 12.79719529151763
HUSKYSAT-1 (HO-107)     
1 45119U 19071J   23086.28760851  .00520697  11707-3  15252-2 0  9999
2 45119  51.6236  85.2866 0009168  83.5442 276.6608 15.92110830177404
BY70-2                  
1 45857U 20042B   23086.48693916  .00024025  00000+0  26808-2 0  9990
2 45857  97.9267 166.3057 0009090 262.0111  98.0027 14.86969696147383
SALSAT                  
1 46495U 20068K   23086.80066589  .00008086  00000+0  54509-3 0  9992
2 46495  97.7620  34.0345 0017052  41.3648 318.8867 15.06811489136814
BY70-3                  
1 46839U 20079N   23086.76884913  .00744350  23482-3  20620-2 0  9990
2 46839  97.1464 164.2559 0006264 273.7735 207.9804 15.93815680134225
RADFXSAT-2 (AO-109)     
1 47311U 21002C   23086.92095859  .00030113  00000+0  88932-3 0  9997
2 47311  60.6840   9.9513 0030212 131.3871 228.9827 15.34385785121798
UVSQ-SAT                
1 47438U 21006AB  23086.89587303  .00018591  00000+0  82277-3 0  9999
2 47438  97.3948 145.2845 0010048  16.5610 343.5952 15.21668131120276
DIY-1 (ARDUIQUBE)       
1 47963U 21022AH  23086.68165410  .00096896  00000+0  26844-2 0  9999
2 47963  97.5064 352.2702 0007910 201.9006 158.1901 15.36557641109983
XW-3 (CAS-9)            
1 50466U 21131B   23086.87816925  .00001336  00000+0  44901-3 0  9997
2 50466  98.5539 168.6790 0004754  39.7845 320.3690 14.38781911 65664
TEVEL-3                 
1 50988U 22002E   23086.88800199  .00030879  00000+0  13635-2 0  9994
2 50988  97.4422 154.5737 0009128 159.0002 317.4846 15.21647763 66387
TEVEL-8                 
1 50989U 22002F   23086.83327206  .00031056  00000+0  13738-2 0  9995
2 50989  97.4428 154.5672 0009080 156.5377 295.9937 15.21585241 66378
TEVEL-5                 
1 50998U 22002Q   23086.94924530  .00031907  00000+0  13798-2 0  9991
2 50998  97.4411 154.9296 0010463 152.1507  20.9830 15.22341567 66415
TEVEL-6                 
1 50999U 22002R   23086.87248659  .00032136  00000+0  13892-2 0  9995
2 50999  97.4406 154.8515 0011339 152.6861 327.6345 15.22343702 66404
TEVEL-1                 
1 51013U 22002AF  23086.89581586  .00030763  00000+0  13597-2 0  9990
2 51013  97.4410 154.5346 0009700 158.1943 319.6475 15.21610978 66380
TEVEL-7                 
1 51062U 22002CG  23086.90493465  .00030817  00000+0  13626-2 0  9997
2 51062  97.4439 154.6166 0009827 155.8630 319.4572 15.21597038 66380
TEVEL-4                 
1 51063U 22002CH  23086.84220632  .00030878  00000+0  13670-2 0  9991
2 51063  97.4439 154.5432 0009569 155.7605 316.0344 15.21556852 66378
TEVEL-2                 
1 51069U 22002CP  23086.89020258  .00030698  00000+0  13554-2 0  9995
2 51069  97.4409 154.5505 0009819 157.2879 320.9818 15.21647031 66381
GREENCUBE               
1 53106U 22080B   23080.11397462 -.00000003  00000+0  00000+0 0  9995
2 53106  70.1803 350.3243 0008309 206.6105 153.4129  6.42557126 16095
RS29S (SXC3-2110 CYCLO*)
1 53373U 22096D   23086.87102810  .00044903  00000+0  13772-2 0  9997
2 53373  97.4203 352.5166 0003698  93.4712 331.3924 15.33618834 35205
RS32S (SXC3-212 MONITO*)
1 53374U 22096E   23086.81038480  .00041224  00000+0  12778-2 0  9991
2 53374  97.4190 352.4341 0003756  83.7014   1.6721 15.33302762 35197
RS34S (SXC3-218 KUZBAS*)
1 53375U 22096F   23086.93826442  .00034830  00000+0  11247-2 0  9993
2 53375  97.4205 352.4267 0003648  82.7206 341.0010 15.32030921 35202
RS23S (SXC3-21 UTMN)    
1 53376U 22096G   23086.85558090  .00037360  00000+0  11911-2 0  9995
2 53376  97.4203 352.3820 0003971  72.9496 352.0362 15.32424977 35194
RS28S (SXC3-214 MIET-A*)
1 53377U 22096H   23086.87016477  .00032548  00000+0  10547-2 0  9993
2 53377  97.4206 352.3684 0003340  84.7827 340.2636 15.31935479 35191
RS26S (KAI-1)           
1 53378U 22096J   23086.84575839  .00028555  00000+0  95169-3 0  9990
2 53378  97.4226 352.2526 0003604  73.4578 353.7827 15.31054784 35180
RS19S (SXC3-219 ISOI)   
1 53381U 22096M   23086.93518759  .00035987  00000+0  11388-2 0  9999
2 53381  97.4207 352.6052 0005258  25.7931 104.2925 15.32666964 35213
RS21S (CUBESX-HSE-2)    
1 53383U 22096P   23086.84720933  .00036813  00000+0  11588-2 0  9991
2 53383  97.4213 352.5510 0004836  25.7704  39.4722 15.32831617 35201
RS30S (SXC3-217 SIREN)  
1 53384U 22096Q   23086.88113983  .00030734  00000+0  99376-3 0  9995
2 53384  97.4217 352.5071 0004586  22.1460  42.8284 15.32012054 35207
RS20S (GEOSCAN-EDELVEIS)
1 53385U 22096R   23086.91508196  .00047389  00000+0  13911-2 0  9998
2 53385  97.4195 352.9029 0005072  23.8543  44.3976 15.34988085 35260
RS33S (SXC3-215 VIZARD) 
1 53386U 22096S   23086.85176142  .00059405  00000+0  16295-2 0  9994
2 53386  97.4193 353.1368 0005654  26.2348  38.9786 15.37049789 35264
CAS-5A (FO-118)         
1 54684U 22167C   23086.95141459  .00020486  00000+0  11990-2 0  9993
2 54684  97.5477 225.2714 0013674 252.9775 226.5363 15.11786870 16399
